NORAD_CAT_ID,OBJECT_NAME,OBJECT_TYPE,EPOCH,MEAN_MOTION,ECCENTRICITY,INCLINATION,RA_OF_ASC_NODE,ARG_OF_PERICENTER,MEAN_ANOMALY,BSTAR,MEAN_MOTION_DOT,MEAN_MOTION_DDOT,TLE_LINE0,TLE_LINE1,TLE_LINE2,SEMIMAJOR_AXIS,PERIOD,APOGEE,PERIGEE,DECAYED
53634.0,STARLINK-4592,PAYLOAD,2024-05-09 07:32:21,15.08848608,0.0001102,53.2181,348.9712,81.9632,278.1486,-6.4784e-05,-1.319e-05,0.0,0 STARLINK-4592,1 53634U 22104AY  24130.31413205 -.00001319  00000-0 -64784-4 0  9998,2 53634  53.2181 348.9712 0001102  81.9632 278.1486 15.08848608 95176,6917.854,95.437,540.481,538.957,0.0
53634.0,STARLINK-4592,PAYLOAD,2024-05-09 20:15:27,15.08834085,0.0001495,53.2199,346.5955,93.3005,266.8158,-6.1635e-05,-1.269e-05,0.0,0 STARLINK-4592,1 53634U 22104AY  24130.84406394 -.00001269  00000-0 -61635-4 0  9993,2 53634  53.2199 346.5955 0001495  93.3005 266.8158 15.08834085 94234,6917.898,95.438,540.798,538.729,0.0
53634.0,STARLINK-4592,PAYLOAD,2024-05-09 21:50:50,15.08835891,0.0001363,53.2192,346.2974,92.1391,267.9757,-5.3876e-05,-1.145e-05,0.0,0 STARLINK-4592,1 53634U 22104AY  24130.91030239 -.00001145  00000-0 -53876-4 0  9993,2 53634  53.2192 346.2974 0001363  92.1391 267.9757 15.08835891 95261,6917.893,95.438,540.701,538.815,0.0
53634.0,STARLINK-4592,PAYLOAD,2024-05-09 23:26:12,15.08840494,0.000132,53.2193,345.9981,83.7856,276.3287,-2.578e-05,-6.98e-06,0.0,0 STARLINK-4592,1 53634U 22104AY  24130.97653842 -.00000698  00000-0 -25780-4 0  9995,2 53634  53.2193 345.9981 0001320  83.7856 276.3287 15.08840494 94256,6917.879,95.438,540.657,538.831,0.0
53634.0,STARLINK-4592,PAYLOAD,2024-05-10 07:23:08,15.08838829,0.0001375,53.2199,344.5123,87.617,272.498,-2.6496e-05,-7.1e-06,0.0,0 STARLINK-4592,1 53634U 22104AY  24131.30773962 -.00000710  00000-0 -26496-4 0  9999,2 53634  53.2199 344.5123 0001375  87.6170 272.4980 15.08838829 95322,6917.884,95.438,540.7,538.798,0.0
53634.0,STARLINK-4592,PAYLOAD,2024-05-10 21:41:35,15.0885704,0.0001228,53.2194,341.8361,84.0972,276.016,9.8169e-05,1.276e-05,0.0,0 STARLINK-4592,1 53634U 22104AY  24131.90388297  .00001276  00000-0  98169-4 0  9990,2 53634  53.2194 341.8361 0001228  84.0972 276.0160 15.08857040 95415,6917.828,95.436,540.543,538.844,0.0
53634.0,STARLINK-4592,PAYLOAD,2024-05-11 13:35:20,15.08904371,9.3e-05,53.2203,338.8598,92.3421,267.7678,0.00055137,8.513e-05,0.0,0 STARLINK-4592,1 53634U 22104AY  24132.56621375  .00008513  00000-0  55137-3 0  9998,2 53634  53.2203 338.8598 0000930  92.3421 267.7678 15.08904371 94492,6917.684,95.433,540.192,538.905,0.0
53634.0,STARLINK-4592,PAYLOAD,2024-05-11 19:57:03,15.08778059,0.0001174,53.217,337.6726,96.5359,263.5767,-0.00061819,-0.00010096,0.0,0 STARLINK-4592,1 53634U 22104AY  24132.83128700 -.00010096  00000-0 -61819-3 0  9997,2 53634  53.2170 337.6726 0001174  96.5359 263.5767 15.08778059 94532,6918.07,95.441,540.747,539.123,0.0
53634.0,STARLINK-4592,PAYLOAD,2024-05-12 07:04:46,15.08771787,0.0001139,53.2174,335.5919,86.486,273.6263,-0.00061323,-0.00010016,0.0,0 STARLINK-4592,1 53634U 22104AY  24133.29498572 -.00010016  00000-0 -61323-3 0  9997,2 53634  53.2174 335.5919 0001139  86.4860 273.6263 15.08771787 95628,6918.089,95.442,540.742,539.166,0.0
53634.0,STARLINK-4592,PAYLOAD,2024-05-12 19:47:54,15.08772267,0.0001205,53.2175,333.211,94.8694,265.2435,-0.00068781,-0.00011197,0.0,0 STARLINK-4592,1 53634U 22104AY  24133.82493085 -.00011197  00000-0 -68781-3 0  9996,2 53634  53.2175 333.2110 0001205  94.8694 265.2435 15.08772267 95700,6918.087,95.442,540.786,539.119,0.0
53634.0,STARLINK-4592,PAYLOAD,2024-05-13 21:13:59,15.08824189,0.0001761,53.217,328.4533,100.1688,259.9503,0.00012751,1.741e-05,0.0,0 STARLINK-4592,1 53634U 22104AY  24134.88471823  .00001741  00000-0  12751-3 0  9997,2 53634  53.2170 328.4533 0001761 100.1688 259.9503 15.08824189 94842,6917.929,95.439,541.012,538.575,0.0
53634.0,STARLINK-4592,PAYLOAD,2024-05-13 22:49:23,15.0882748,0.000187,53.2163,328.1555,96.1497,263.9708,2.1558e-05,5.5e-07,0.0,0 STARLINK-4592,1 53634U 22104AY  24134.95096067  .00000055  00000-0  21558-4 0  9991,2 53634  53.2163 328.1555 0001870  96.1497 263.9708 15.08827480 95871,6917.919,95.438,541.077,538.49,0.0
53634.0,STARLINK-4592,PAYLOAD,2024-05-14 19:29:23,15.08826027,0.0001234,53.2186,324.2889,110.8026,249.3098,0.00071895,0.00011168,0.0,0 STARLINK-4592,1 53634U 22104AY  24135.81207479  .00011168  00000-0  71895-3 0  9993,2 53634  53.2186 324.2889 0001234 110.8026 249.3098 15.08826027 94986,6917.923,95.438,540.642,538.934,0.0
53634.0,STARLINK-4592,PAYLOAD,2024-05-14 22:40:09,15.08835975,0.0001807,53.2204,323.6946,106.3271,253.792,0.00065884,0.00010212,0.0,0 STARLINK-4592,1 53634U 22104AY  24135.94455061  .00010212  00000-0  65884-3 0  9999,2 53634  53.2204 323.6946 0001807 106.3271 253.7920 15.08835975 96024,6917.893,95.438,541.008,538.508,0.0
53634.0,STARLINK-4592,PAYLOAD,2024-05-15 12:58:37,15.08875184,0.0001946,53.2212,321.0178,86.0829,274.0386,-8.3507e-05,-1.618e-05,0.0,0 STARLINK-4592,1 53634U 22104AY  24136.54070992 -.00001618  00000-0 -83507-4 0  9997,2 53634  53.2212 321.0178 0001946  86.0829 274.0386 15.08875184 95093,6917.773,95.435,540.984,538.292,0.0
53634.0,STARLINK-4592,PAYLOAD,2024-05-15 19:20:10,15.08864329,0.0001292,53.2181,319.8275,117.2244,242.888,-8.3565e-05,-1.619e-05,0.0,0 STARLINK-4592,1 53634U 22104AY  24136.80567153 -.00001619  00000-0 -83565-4 0  9991,2 53634  53.2181 319.8275 0001292 117.2244 242.8880 15.08864329 95139,6917.806,95.436,540.565,538.777,0.0
53634.0,STARLINK-4592,PAYLOAD,2024-05-16 04:52:28,15.08862671,0.0001164,53.2185,318.0436,89.878,270.2345,-8.1228e-05,-1.581e-05,0.0,0 STARLINK-4592,1 53634U 22104AY  24137.20310546 -.00001581  00000-0 -81228-4 0  9990,2 53634  53.2185 318.0436 0001164  89.8780 270.2345 15.08862671 96219,6917.811,95.436,540.481,538.871,0.0
53634.0,STARLINK-4592,PAYLOAD,2024-05-16 19:10:56,15.08852401,0.0002016,53.2206,315.3667,83.5611,276.561,-6.4658e-05,-1.318e-05,0.0,0 STARLINK-4592,1 53634U 22104AY  24137.79926396 -.00001318  00000-0 -64658-4 0  9996,2 53634  53.2206 315.3667 0002016  83.5611 276.5610 15.08852401 95280,6917.842,95.437,541.102,538.313,0.0
53634.0,STARLINK-4592,PAYLOAD,2024-05-16 22:21:42,15.08851227,0.0001984,53.2204,314.7736,88.7369,271.385,-7.5725e-05,-1.494e-05,0.0,0 STARLINK-4592,1 53634U 22104AY  24137.93174392 -.00001494  00000-0 -75725-4 0  9995,2 53634  53.2204 314.7736 0001984  88.7369 271.3850 15.08851227 96328,6917.846,95.437,541.084,538.339,0.0
53634.0,STARLINK-4592,PAYLOAD,2024-05-17 04:43:16,15.08836106,0.0002124,53.218,313.5831,89.9933,270.1302,-0.00021838,-3.762e-05,0.0,0 STARLINK-4592,1 53634U 22104AY  24138.19671780 -.00003762  00000-0 -21838-3 0  9992,2 53634  53.2180 313.5831 0002124  89.9933 270.1302 15.08836106 95340,6917.892,95.438,541.227,538.288,0.0
53634.0,STARLINK-4592,PAYLOAD,2024-05-17 20:37:07,15.08837345,0.0001522,53.2169,310.6081,85.5458,274.5708,-8.8059e-05,-1.689e-05,0.0,0 STARLINK-4592,1 53634U 22104AY  24138.85911186 -.00001689  00000-0 -88059-4 0  9997,2 53634  53.2169 310.6081 0001522  85.5458 274.5708 15.08837345 95442,6917.889,95.438,540.806,538.701,0.0
53634.0,STARLINK-4592,PAYLOAD,2024-05-18 04:34:02,15.08845225,0.0001621,53.2208,309.124,82.7621,277.3556,-2.6432e-05,-7.09e-06,0.0,0 STARLINK-4592,1 53634U 22104AY  24139.19030520 -.00000709  00000-0 -26432-4 0  9998,2 53634  53.2208 309.1240 0001621  82.7621 277.3556 15.08845225 95490,6917.864,95.437,540.851,538.608,0.0
53634.0,STARLINK-4592,PAYLOAD,2024-05-18 20:27:50,15.08863964,0.0001654,53.2179,306.1495,86.8126,273.3056,0.00036737,5.567e-05,0.0,0 STARLINK-4592,1 53634U 22104AY  24139.85267247  .00005567  00000-0  36737-3 0  9992,2 53634  53.2179 306.1495 0001654  86.8126 273.3056 15.08863964 95599,6917.807,95.436,540.816,538.528,0.0
53634.0,STARLINK-4592,PAYLOAD,2024-05-19 04:24:50,15.08822609,0.0002258,53.2178,304.6626,76.1393,283.985,6.4917e-06,-1.85e-06,0.0,0 STARLINK-4592,1 53634U 22104AY  24140.18391278 -.00000185  00000-0  64917-5 0  9997,2 53634  53.2178 304.6626 0002258  76.1393 283.9850 15.08822609 95642,6917.934,95.439,541.361,538.236,0.0
53634.0,STARLINK-4592,PAYLOAD,2024-05-19 10:46:22,15.08828904,0.0001721,53.215,303.4749,88.7998,271.3191,-0.00011201,-2.07e-05,0.0,0 STARLINK-4592,1 53634U 22104AY  24140.44887281 -.00002070  00000-0 -11201-3 0  9992,2 53634  53.2150 303.4749 0001721  88.7998 271.3191 15.08828904 96700,6917.914,95.438,540.97,538.589,0.0
53634.0,STARLINK-4592,PAYLOAD,2024-05-20 13:47:55,15.08844565,9.84e-05,53.217,298.4176,57.885,302.2237,-7.3844e-05,-1.463e-05,0.0,0 STARLINK-4592,1 53634U 22104AY  24141.57494497 -.00001463  00000-0 -73844-4 0  9997,2 53634  53.2170 298.4176 0000984  57.8850 302.2237 15.08844565 95854,6917.866,95.437,540.412,539.051,0.0
53634.0,STARLINK-4592,PAYLOAD,2024-05-20 20:09:26,15.08871607,0.0001183,53.218,297.2278,79.0661,281.0464,-5.8497e-05,-1.22e-05,0.0,0 STARLINK-4592,1 53634U 22104AY  24141.83988676 -.00001220  00000-0 -58497-4 0  9991,2 53634  53.2180 297.2278 0001183  79.0661 281.0464 15.08871607 95890,6917.784,95.436,540.467,538.83,0.0
53634.0,STARLINK-4592,PAYLOAD,2024-05-21 13:38:42,15.08815946,0.0001161,53.2169,293.9511,122.7977,237.3128,0.00021999,3.213e-05,0.0,0 STARLINK-4592,1 53634U 22104AY  24142.56854940  .00003213  00000-0  21999-3 0  9996,2 53634  53.2169 293.9511 0001161 122.7977 237.3128 15.08815946 97024,6917.954,95.439,540.622,539.016,0.0
53634.0,STARLINK-4592,PAYLOAD,2024-05-21 15:14:06,15.08821871,0.0001475,53.2179,293.6633,64.0956,296.0188,0.00010188,1.333e-05,0.0,0 STARLINK-4592,1 53634U 22104AY  24142.63479397  .00001333  00000-0  10188-3 0  9992,2 53634  53.2179 293.6633 0001475  64.0956 296.0188 15.08821871 96010,6917.936,95.439,540.821,538.78,0.0
53634.0,STARLINK-4592,PAYLOAD,2024-05-22 10:18:43,15.08845838,0.0001272,53.2187,290.0928,101.9022,258.2112,-0.00017351,-3.049e-05,0.0,0 STARLINK-4592,1 53634U 22104AY  24143.42967295 -.00003049  00000-0 -17351-3 0  9996,2 53634  53.2187 290.0928 0001272 101.9022 258.2112 15.08845838 96136,6917.863,95.437,540.607,538.848,0.0
